STARLINK-31759          
1 59740U 24090L   26068.34447959  .00000510  00000+0  28101-4 0  9998
2 59740  43.0006 185.7591 0002695 291.1394  68.9169 15.27570206103386
BANDWAGON-4 OBJECT N    
1 66305U 25248N   26068.03100984  .00024115  00000+0  97341-3 0  9997
2 66305  45.4084 294.9612 0013521 206.7837 153.2354 15.24369076 17177
